STARLINK-1247           
1 45236U 20012BL  20114.91667824  .00043089  00000-0  47419-3 0  9998
2 45236  53.0001 301.6170 0001510  47.6901 157.1214 15.62737843 10742
STARLINK-1270           
1 45237U 20012BM  20114.25001157 -.00014794  00000-0 -15609-3 0  9996
2 45237  53.0015 304.9243 0001136  49.3073 340.6965 15.62743173 10642
STARLINK-1279           
1 45360U 20019A   20114.58334491 -.00030138  00000-0 -32443-3 0  9991
2 45360  52.9987  76.2964 0001248  53.0800  94.2429 15.62759671  6336
STARLINK-1301           
1 45361U 20019B   20114.58334491 -.00018771  00000-0 -19968-3 0  9998
2 45361  52.9985  76.3216 0001257  55.4037  76.6857 15.62746401  6330
STARLINK-1306           
1 45362U 20019C   20114.91667824  .01518547  00000-0  50790-1 0  9996
2 45362  52.9981  79.0046 0003515  34.0160 312.8741 15.27527475  6344
STARLINK-1311           
1 45363U 20019D   20114.15672478  .00075243  00000-0  72438-3 0  9999
2 45363  52.9989  79.6917 0001887 146.2831 213.8304 15.65891594  6261
STARLINK-1313           
1 45364U 20019E   20114.58334491 -.00022476  00000-0 -24029-3 0  9992
2 45364  52.9982  76.2819 0001369  60.8415  89.9045 15.62753472  6334
STARLINK-1317           
1 45365U 20019F   20114.91667824  .00007265  00000-0  85088-4 0  9999
2 45365  52.9966  74.6569 0001327  70.4626 154.9737 15.62757341  6381
STARLINK-1262           
1 45366U 20019G   20114.91667824  .04828290  00000-0  17653+0 0  9991
2 45366  52.9989  79.9872 0001876 204.0692   4.5070 15.23248065  6328
STARLINK-1273           
1 45367U 20019H   20114.91667824  .04401433  00000-0  16220+0 0  9997
2 45367  53.0010  79.9495 0003328 138.0082 344.0099 15.22662140  6326
STARLINK-1276           
1 45368U 20019J   20114.91667824  .04396890  00000-0  15792+0 0  9991
2 45368  52.9973  79.9862 0001155 228.6397   8.6729 15.23529855  6321
STARLINK-1277           
1 45369U 20019K   20114.91667824  .04232924  00000-0  15225+0 0  9990
2 45369  52.9971  79.9839 0001024 268.2449 343.3022 15.23658437  6321
STARLINK-1281           
1 45370U 20019L   20114.91667824  .01367682  00000-0  53936-1 0  9992
2 45370  52.9999  80.0399 0003818  44.7153 320.5705 15.22305769  6308
STARLINK-1287           
1 45371U 20019M   20114.69033158 -.00284832  00000-0 -11441-1 0  9996
2 45371  53.0026  80.9943 0001998 106.6835 253.4381 15.25720455  6296
STARLINK-1288           
1 45372U 20019N   20114.91667824  .03488969  00000-0  13238+0 0  9997
2 45372  53.0016  79.9500 0003309 121.9810 345.2441 15.22665352  6326
STARLINK-1295           
1 45373U 20019P   20114.62225721 -.00295947  00000-0 -11865-1 0  9999
2 45373  53.0020  81.3218 0001216 112.9821 247.1304 15.25836821  6289
STARLINK-1300           
1 45374U 20019Q   20114.91667824  .04864015  00000-0  17829+0 0  9990
2 45374  52.9994  79.9921 0002009 192.1871   1.7582 15.23128929  6326
STARLINK-1302           
1 45375U 20019R   20114.91667824  .04427503  00000-0  16251+0 0  9996
2 45375  53.0007  79.9600 0003161 147.0500 349.3235 15.22769348  6327
STARLINK-1304           
1 45376U 20019S   20114.91667824  .02246459  00000-0  86555-1 0  9990
2 45376  53.0006  79.9230 0003741  86.7034 337.1406 15.22560120  6323
STARLINK-1305           
1 45377U 20019T   20114.91667824  .04694534  00000-0  17166+0 0  9994
2 45377  52.9989  79.9962 0001441 223.4430 359.2862 15.23365508  6324
STARLINK-1310           
1 45378U 20019U   20114.91667824  .03440593  00000-0  12323+0 0  9998
2 45378  52.9973  79.9152 0001302 339.7193 300.3061 15.24004961  6324
STARLINK-1319           
1 45379U 20019V   20114.91667824  .03543030  00000-0  12957+0 0  9992
2 45379  52.9968  79.9554 0001125 319.2810 306.2164 15.23847875  6324
STARLINK-1207           
1 45380U 20019W   20114.58334491 -.00022813  00000-0 -24392-3 0  9998
2 45380  52.9974  77.6961 0001359  71.3261 111.6409 15.62760361  6322
STARLINK-1258           
1 45381U 20019X   20114.83334491  .00036616  00000-0  40446-3 0  9999
2 45381  52.9973  76.4815 0001106  74.3421  65.7250 15.62718134  6355
STARLINK-1264           
1 45382U 20019Y   20114.58334491 -.00038177  00000-0 -41268-3 0  9991
2 45382  52.9974  77.6733 0001357  74.0366 119.0719 15.62775414  6135
STARLINK-1266           
1 45383U 20019Z   20114.83334491  .00036620  00000-0  40445-3 0  9995
2 45383  52.9974  76.4686 0001111  68.6971  78.1644 15.62721492  6352
STARLINK-1267           
1 45384U 20019AA  20114.91667824  .00010271  00000-0  11786-3 0  9994
2 45384  52.9975  76.0484 0001124  73.8875 192.2690 15.62752199  6370
STARLINK-1268           
1 45385U 20019AB  20114.91667824  .00008838  00000-0  10224-3 0  9997
2 45385  52.9976  76.1502 0001287  54.8714 156.9835 15.62754632  6377
STARLINK-1272           
1 45386U 20019AC  20114.58334491 -.00023648  00000-0 -25328-3 0  9991
2 45386  52.9973  77.6900 0001392  61.5148 124.8398 15.62741941  6328
STARLINK-1274           
1 45387U 20019AD  20114.25001157  .00016028  00000-0  18062-3 0  9995
2 45387  52.9971  79.3496 0001400  56.6544  32.9269 15.62740191  1777
STARLINK-1280           
1 45388U 20019AE  20114.91667824  .02497210  00000-0  72960-1 0  9991
2 45388  52.9991  77.9128 0003662  98.4204 338.7624 15.31382052  6350
STARLINK-1283           
1 45389U 20019AF  20114.91667824  .05132010  00000-0  46549-1 0  9993
2 45389  52.9959  71.6749 0001442 257.2867 330.7094 15.63052642  6435
STARLINK-1284           
1 45390U 20019AG  20114.58334491 -.00039940  00000-0 -43227-3 0  9996
2 45390  52.9972  77.7001 0001303  61.2822 114.8817 15.62765696  6310
STARLINK-1289           
1 45391U 20019AH  20114.58334491 -.00020799  00000-0 -22191-3 0  9996
2 45391  52.9972  77.7231 0001429  62.4516 100.1429 15.62749129  6048
STARLINK-1290           
1 45392U 20019AJ  20114.58334491 -.00037000  00000-0 -40005-3 0  9994
2 45392  52.9968  77.7747 0001308  54.0885  88.1664 15.62754641  6049
STARLINK-1291           
1 45393U 20019AK  20114.25001157  .00009251  00000-0  10680-3 0  9990
2 45393  52.9948  79.3012 0007934 320.1841 159.9764 15.62724465  6028
STARLINK-1292           
1 45394U 20019AL  20114.58334491 -.00038841  00000-0 -42010-3 0  9998
2 45394  52.9972  77.7252 0001366  65.7233 103.6285 15.62768520  6051
STARLINK-1297           
1 45395U 20019AM  20114.58334491 -.00037690  00000-0 -40754-3 0  9993
2 45395  52.9966  77.7864 0001355  55.4627  83.3875 15.62761210  6075
STARLINK-1303           
1 45396U 20019AN  20114.58334491 -.00022302  00000-0 -23849-3 0  9994
2 45396  52.9971  77.7399 0001355  58.9001 100.3285 15.62741272  6036
STARLINK-1307           
1 45397U 20019AP  20114.58334491 -.00037960  00000-0 -41071-3 0  9998
2 45397  52.9963  77.7610 0001159  66.8944  78.7442 15.62749867  6143
STARLINK-1312           
1 45398U 20019AQ  20114.25001157  .00016023  00000-0  18064-3 0  9994
2 45398  52.9969  79.3658 0001214  56.6459  22.8307 15.62728351  6022
STARLINK-1255           
1 45399U 20019AR  20114.91667824  .08307496  00000-0  79070-1 0  9994
2 45399  52.9993  76.2321 0002261 230.3516 340.0687 15.61834268  6177
STARLINK-1213           
1 45400U 20019AS  20114.58334491 -.00040003  00000-0 -43302-3 0  9994
2 45400  52.9973  77.6716 0001153  69.1541 118.8845 15.62762451  6055
STARLINK-1256           
1 45401U 20019AT  20114.50002315 -.00025407  00000-0 -27236-3 0  9993
2 45401  52.9969  78.0888 0001290  62.3176  20.0842 15.62765402  6114
STARLINK-1257           
1 45402U 20019AU  20114.58334491 -.00023903  00000-0 -25606-3 0  9993
2 45402  52.9972  77.6606 0001219  57.2467 137.5829 15.62744259  6126
STARLINK-1259           
1 45403U 20019AV  20114.25001157  .00010209  00000-0  11727-3 0  9990
2 45403  52.9973  79.3197 0001343  63.8202  41.0552 15.62733379  6077
STARLINK-1260           
1 45404U 20019AW  20114.91667824  .00004350  00000-0  53335-4 0  9995
2 45404  52.9980  76.0886 0001244  73.4266 170.6729 15.62741510  6084
STARLINK-1263           
1 45405U 20019AX  20114.58334491 -.00038546  00000-0 -41671-3 0  9995
2 45405  52.9972  77.6781 0001195  76.1545 108.4888 15.62777862  6031
STARLINK-1265           
1 45406U 20019AY  20114.25001157  .00016737  00000-0  18834-3 0  9991
2 45406  52.9973  79.3500 0001535  68.1205  29.9670 15.62739283  5987
STARLINK-1275           
1 45407U 20019AZ  20114.58334491 -.00039417  00000-0 -42646-3 0  9998
2 45407  52.9971  77.7360 0001287  64.9960  95.8804 15.62768098  6032
STARLINK-1278           
1 45408U 20019BA  20114.91667824  .02654298  00000-0  76921-1 0  9996
2 45408  52.9986  77.8960 0003517 101.0838 338.8559 15.31422926  6075
STARLINK-1282           
1 45409U 20019BB  20114.91667824  .00008930  00000-0  10332-3 0  9997
2 45409  52.9970  76.1059 0001085  83.1817 147.3478 15.62735533  6095
STARLINK-1285           
1 45410U 20019BC  20114.91667824  .00011330  00000-0  12932-3 0  9995
2 45410  52.9973  76.0648 0001344  76.4889 177.7376 15.62767717  6087
STARLINK-1293           
1 45411U 20019BD  20114.25001157  .00007338  00000-0  85954-4 0  9992
2 45411  52.9966  79.4207 0001369  60.9783   3.1952 15.62735387  5984
STARLINK-1296           
1 45412U 20019BE  20114.58334491 -.00022899  00000-0 -24502-3 0  9991
2 45412  52.9974  77.7137 0001159  66.6281 104.4606 15.62745672  6036
STARLINK-1298           
1 45413U 20019BF  20114.25001157  .00008457  00000-0  98190-4 0  9993
2 45413  52.9968  79.4043 0001343  62.7974   4.7918 15.62727215  6071
STARLINK-1309           
1 45414U 20019BG  20114.58334491 -.00021629  00000-0 -23107-3 0  9993
2 45414  52.9970  77.7386 0001138  65.8060  91.7149 15.62745395  6046
STARLINK-1316           
1 45415U 20019BH  20114.25001157  .00007508  00000-0  87825-4 0  9994
2 45415  52.9972  79.3013 0001153  68.8694  52.9617 15.62730175  6002
STARLINK-1318           
1 45416U 20019BJ  20114.58334491 -.00039665  00000-0 -42920-3 0  9998
2 45416  52.9977  77.7341 0001277  59.0368 105.2252 15.62768049  6043
